{
  "type": "FeatureCollection",
  "features": [
    {
      "type": "Feature",
      "geometry": {
        "type": "Polygon",
        "coordinates": [
          [
            [
              89.53244376276785,
              22.790824136625304
            ],
            [
              89.53385996912772,
              22.788094142424168
            ],
            [
              89.53480410670096,
              22.787105000603034
            ],
            [
              89.5359628209954,
              22.786353248021143
            ],
            [
              89.53694987391287,
              22.785918020948333
            ],
            [
              89.53755068873222,
              22.793395820300034
            ],
            [
              89.53883814905936,
              22.8005567146217
            ],
            [
              89.5284526357537,
              22.79842035458286
            ],
            [
              89.53244376276785,
              22.790824136625304
            ]
          ]
        ]
      },
      "id": "0",
      "properties": {
        "boundary_type": "user_drawn_pilot_not_administrative",
        "site": "ZeroPoint_Nirala_Pilot"
      }
    }
  ]
}